NORAD_CAT_ID,OBJECT_NAME,OBJECT_TYPE,EPOCH,MEAN_MOTION,ECCENTRICITY,INCLINATION,RA_OF_ASC_NODE,ARG_OF_PERICENTER,MEAN_ANOMALY,BSTAR,MEAN_MOTION_DOT,MEAN_MOTION_DDOT,TLE_LINE0,TLE_LINE1,TLE_LINE2,SEMIMAJOR_AXIS,PERIOD,APOGEE,PERIGEE,DECAYED
54077.0,STARLINK-5171,PAYLOAD,2023-11-28 14:41:10,15.08842302,0.0001738,53.2178,99.1395,60.4968,299.6197,5.8988e-05,6.51e-06,0.0,0 STARLINK-5171,1 54077U 22136AC  23332.61192380  .00000651  00000-0  58988-4 0  9994,2 54077  53.2178  99.1395 0001738  60.4968 299.6197 15.08842302 61518,6917.873,95.437,540.941,538.536,0.0
54077.0,STARLINK-5171,PAYLOAD,2023-11-28 17:51:55,15.08852359,0.000133,53.2172,98.5476,74.8479,285.2661,0.00025002,3.695e-05,0.0,0 STARLINK-5171,1 54077U 22136AC  23332.74439753  .00003695  00000-0  25002-3 0  9997,2 54077  53.2172  98.5476 0001330  74.8479 285.2661 15.08852359 62015,6917.843,95.437,540.628,538.788,0.0
54077.0,STARLINK-5171,PAYLOAD,2023-11-29 14:31:57,15.08841622,0.0001801,53.219,94.6738,64.5402,295.5777,0.00024874,3.673e-05,0.0,0 STARLINK-5171,1 54077U 22136AC  23333.60552725  .00003673  00000-0  24874-3 0  9990,2 54077  53.2190  94.6738 0001801  64.5402 295.5777 15.08841622 61661,6917.875,95.437,540.986,538.495,0.0
54077.0,STARLINK-5171,PAYLOAD,2023-12-01 11:02:45,15.08842177,0.0001439,53.2188,86.3624,91.2107,268.905,-4.1577e-05,-9.5e-06,0.0,0 STARLINK-5171,1 54077U 22136AC  23335.46025041 -.00000950  00000-0 -41577-4 0  9999,2 54077  53.2188  86.3624 0001439  91.2107 268.9050 15.08842177 62425,6917.874,95.437,540.734,538.743,0.0
54077.0,STARLINK-5171,PAYLOAD,2023-12-01 14:13:31,15.08843882,0.0001821,53.2188,85.7585,67.0268,293.0916,0.0001116,1.489e-05,0.0,0 STARLINK-5171,1 54077U 22136AC  23335.59272962  .00001489  00000-0  11160-3 0  9999,2 54077  53.2188  85.7585 0001821  67.0268 293.0916 15.08843882 61960,6917.869,95.437,540.993,538.474,0.0
54077.0,STARLINK-5171,PAYLOAD,2023-12-02 12:28:54,15.0887742,0.0001534,53.2188,81.6038,100.453,259.6635,0.00080654,0.00012584,0.0,0 STARLINK-5171,1 54077U 22136AC  23336.52007323  .00012584  00000-0  80654-3 0  9992,2 54077  53.2188  81.6038 0001534 100.4530 259.6635 15.08877420 62583,6917.766,95.435,540.692,538.57,0.0
54077.0,STARLINK-5171,PAYLOAD,2023-12-02 14:04:17,15.08875582,0.0001587,53.219,81.306,99.5899,260.5272,0.00074143,0.00011543,0.0,0 STARLINK-5171,1 54077U 22136AC  23336.58631332  .00011543  00000-0  74143-3 0  9991,2 54077  53.2190  81.3060 0001587  99.5899 260.5272 15.08875582 62116,6917.772,95.435,540.734,538.539,0.0
54077.0,STARLINK-5171,PAYLOAD,2023-12-03 12:19:43,15.08800465,0.0001869,53.2194,77.1441,130.8505,229.265,-0.00048248,-7.95e-05,0.0,0 STARLINK-5171,1 54077U 22136AC  23337.51370039 -.00007950  00000-0 -48248-3 0  9995,2 54077  53.2194  77.1441 0001869 130.8505 229.2650 15.08800465 62730,6918.001,95.44,541.159,538.573,0.0
54077.0,STARLINK-5171,PAYLOAD,2023-12-03 13:55:07,15.08786527,0.0001371,53.2188,76.845,102.1839,257.9307,-0.0007135,-0.00011609,0.0,0 STARLINK-5171,1 54077U 22136AC  23337.57994478 -.00011609  00000-0 -71350-3 0  9996,2 54077  53.2188  76.8450 0001371 102.1839 257.9307 15.08786527 62266,6918.044,95.441,540.857,538.96,0.0
54077.0,STARLINK-5171,PAYLOAD,2023-12-04 12:10:30,15.0884157,0.0001583,53.2183,72.6781,109.9394,250.1769,0.00078768,0.00012271,0.0,0 STARLINK-5171,1 54077U 22136AC  23338.50730317  .00012271  00000-0  78768-3 0  9994,2 54077  53.2183  72.6781 0001583 109.9394 250.1769 15.08841570 62883,6917.876,95.437,540.836,538.645,0.0
54077.0,STARLINK-5171,PAYLOAD,2023-12-05 12:01:17,15.08855896,0.0001732,53.2184,68.2193,124.1494,235.9663,0.00062391,9.66e-05,0.0,0 STARLINK-5171,1 54077U 22136AC  23339.50089962  .00009660  00000-0  62391-3 0  9991,2 54077  53.2184  68.2193 0001732 124.1494 235.9663 15.08855896 63036,6917.832,95.437,540.895,538.499,0.0
54077.0,STARLINK-5171,PAYLOAD,2023-12-05 15:12:03,15.08859717,0.0001296,53.2168,67.622,105.0368,255.0768,0.00058672,9.067e-05,0.0,0 STARLINK-5171,1 54077U 22136AC  23339.63337740  .00009067  00000-0  58672-3 0  9993,2 54077  53.2168  67.6220 0001296 105.0368 255.0768 15.08859717 62578,6917.82,95.436,540.582,538.789,0.0
54077.0,STARLINK-5171,PAYLOAD,2023-12-06 11:52:03,15.08854173,0.0001351,53.2173,63.7563,109.7232,250.3906,-2.8901e-05,-7.48e-06,0.0,0 STARLINK-5171,1 54077U 22136AC  23340.49449020 -.00000748  00000-0 -28901-4 0  9996,2 54077  53.2173  63.7563 0001351 109.7232 250.3906 15.08854173 63185,6917.837,95.437,540.637,538.767,0.0
54077.0,STARLINK-5171,PAYLOAD,2023-12-06 13:27:27,15.08854278,0.0001365,53.2187,63.4607,109.5506,250.5634,-3.6145e-06,-3.46e-06,0.0,0 STARLINK-5171,1 54077U 22136AC  23340.56073103 -.00000346  00000-0 -36145-5 0  9993,2 54077  53.2187  63.4607 0001365 109.5506 250.5634 15.08854278 62717,6917.837,95.437,540.646,538.757,0.0
54077.0,STARLINK-5171,PAYLOAD,2023-12-07 11:42:51,15.08840087,0.0001463,53.2183,59.2949,83.2226,276.8933,-0.00011227,-2.074e-05,0.0,0 STARLINK-5171,1 54077U 22136AC  23341.48809767 -.00002074  00000-0 -11227-3 0  9990,2 54077  53.2183  59.2949 0001463  83.2226 276.8933 15.08840087 63336,6917.88,95.438,540.757,538.733,0.0
54077.0,STARLINK-5171,PAYLOAD,2023-12-08 11:33:38,15.08844074,0.0001447,53.2177,54.8373,81.5035,278.6121,0.00014994,2.099e-05,0.0,0 STARLINK-5171,1 54077U 22136AC  23342.48169856  .00002099  00000-0  14994-3 0  9998,2 54077  53.2177  54.8373 0001447  81.5035 278.6121 15.08844074 63005,6917.868,95.437,540.734,538.732,0.0
54077.0,STARLINK-5171,PAYLOAD,2023-12-09 11:24:25,15.08840752,0.0001548,53.2185,50.3762,97.6098,262.507,0.00014316,1.991e-05,0.0,0 STARLINK-5171,1 54077U 22136AC  23343.47530071  .00001991  00000-0  14316-3 0  9997,2 54077  53.2185  50.3762 0001548  97.6098 262.5070 15.08840752 63639,6917.878,95.438,540.814,538.672,0.0
54077.0,STARLINK-5171,PAYLOAD,2023-12-09 14:35:12,15.08841712,0.0001512,53.2183,49.7802,93.8448,266.2717,0.00014757,2.061e-05,0.0,0 STARLINK-5171,1 54077U 22136AC  23343.60778012  .00002061  00000-0  14757-3 0  9999,2 54077  53.2183  49.7802 0001512  93.8448 266.2717 15.08841712 63177,6917.875,95.437,540.786,538.694,0.0
54077.0,STARLINK-5171,PAYLOAD,2023-12-11 11:06:00,15.08838967,0.0001441,53.2184,41.453,96.8001,263.3156,8.0995e-05,1.001e-05,0.0,0 STARLINK-5171,1 54077U 22136AC  23345.46250456  .00001001  00000-0  80995-4 0  9993,2 54077  53.2184  41.4530 0001441  96.8001 263.3156 15.08838967 63931,6917.884,95.438,540.745,538.752,0.0
54077.0,STARLINK-5171,PAYLOAD,2023-12-12 10:56:47,15.08836832,0.0001725,53.2191,36.9886,64.0114,296.1056,8.1661e-05,1.012e-05,0.0,0 STARLINK-5171,1 54077U 22136AC  23346.45611060  .00001012  00000-0  81661-4 0  9998,2 54077  53.2191  36.9886 0001725  64.0114 296.1056 15.08836832 64088,6917.89,95.438,540.948,538.562,0.0
54077.0,STARLINK-5171,PAYLOAD,2023-12-13 10:47:33,15.08854965,0.0001694,53.2189,32.5289,65.2785,294.8383,0.0002092,3.044e-05,0.0,0 STARLINK-5171,1 54077U 22136AC  23347.44969454  .00003044  00000-0  20920-3 0  9998,2 54077  53.2189  32.5289 0001694  65.2785 294.8383 15.08854965 64238,6917.835,95.437,540.872,538.528,0.0
54077.0,STARLINK-5171,PAYLOAD,2023-12-14 10:38:21,15.08838199,0.0001455,53.217,28.0755,81.1909,278.9248,4.2588e-07,-2.81e-06,0.0,0 STARLINK-5171,1 54077U 22136AC  23348.44330590 -.00000281  00000-0  42588-6 0  9990,2 54077  53.2170  28.0755 0001455  81.1909 278.9248 15.08838199 64386,6917.886,95.438,540.757,538.744,0.0
54077.0,STARLINK-5171,PAYLOAD,2023-12-15 08:53:45,15.08845778,0.000151,53.2171,23.9131,78.8033,281.3129,1.3814e-05,-6.8e-07,0.0,0 STARLINK-5171,1 54077U 22136AC  23349.37066308 -.00000068  00000-0  13814-4 0  9997,2 54077  53.2171  23.9131 0001510  78.8033 281.3129 15.08845778 64042,6917.863,95.437,540.772,538.683,0.0
54077.0,STARLINK-5171,PAYLOAD,2023-12-16 08:44:32,15.08840495,0.0001473,53.2162,19.4524,85.3838,274.7322,0.00016793,2.386e-05,0.0,0 STARLINK-5171,1 54077U 22136AC  23350.36426776  .00002386  00000-0  16793-3 0  9999,2 54077  53.2162  19.4524 0001473  85.3838 274.7322 15.08840495 64673,6917.879,95.438,540.763,538.725,0.0
54077.0,STARLINK-5171,PAYLOAD,2023-12-17 08:35:18,15.08860921,0.0001482,53.217,14.9872,105.9177,254.1978,0.00038619,5.867e-05,0.0,0 STARLINK-5171,1 54077U 22136AC  23351.35785515  .00005867  00000-0  38619-3 0  9996,2 54077  53.2170  14.9872 0001482 105.9177 254.1978 15.08860921 64825,6917.816,95.436,540.707,538.656,0.0
54077.0,STARLINK-5171,PAYLOAD,2023-12-18 08:26:05,15.08852204,0.0001646,53.2175,10.5254,109.473,250.644,0.00013553,1.87e-05,0.0,0 STARLINK-5171,1 54077U 22136AC  23352.35145020  .00001870  00000-0  13553-3 0  9998,2 54077  53.2175  10.5254 0001646 109.4730 250.6440 15.08852204 64978,6917.843,95.437,540.847,538.569,0.0
54077.0,STARLINK-5171,PAYLOAD,2023-12-19 08:16:53,15.08833051,0.0001452,53.2172,6.0691,105.0748,255.0405,-0.00028889,-4.882e-05,0.0,0 STARLINK-5171,1 54077U 22136AC  23353.34506019 -.00004882  00000-0 -28889-3 0  9993,2 54077  53.2172   6.0691 0001452 105.0748 255.0405 15.08833051 65123,6917.902,95.438,540.771,538.762,0.0
54077.0,STARLINK-5171,PAYLOAD,2023-12-20 08:07:41,15.08830907,0.0001451,53.2172,1.6088,94.9511,265.1647,-3.3883e-05,-8.27e-06,0.0,0 STARLINK-5171,1 54077U 22136AC  23354.33867172 -.00000827  00000-0 -33883-4 0  9999,2 54077  53.2172   1.6088 0001451  94.9511 265.1647 15.08830907 64796,6917.908,95.438,540.777,538.769,0.0
54077.0,STARLINK-5171,PAYLOAD,2023-12-21 07:58:28,15.08851663,0.0001573,53.2174,357.1472,85.4757,274.6415,0.00058537,9.043e-05,0.0,0 STARLINK-5171,1 54077U 22136AC  23355.33227132  .00009043  00000-0  58537-3 0  9995,2 54077  53.2174 357.1472 0001573  85.4757 274.6415 15.08851663 65427,6917.845,95.437,540.798,538.622,0.0
54077.0,STARLINK-5171,PAYLOAD,2023-12-22 06:13:52,15.08844107,0.0001611,53.2173,352.9876,89.2876,270.8301,0.00017759,2.54e-05,0.0,0 STARLINK-5171,1 54077U 22136AC  23356.25963557  .00002540  00000-0  17759-3 0  9991,2 54077  53.2173 352.9876 0001611  89.2876 270.8301 15.08844107 65566,6917.868,95.437,540.847,538.618,0.0
